{"$sys":{"guid":"ab573a02-b888-b3b4-36a7-38629a5fe6b7","typeGuid":"0c2f3ec8-ad4a-c311-a6fa-511609647747"},"fields":{"Id":1000,"Name":"DataRoot"},"collections":{"DataElements":[{"$sys":{"guid":"446eb528-4392-5865-3697-bab515bc709b","typeGuid":"59583572-20fa-1f58-8d3f-5114af0f2c51"},"fields":{"Id":1,"CompanyId":0,"Company":"Google","Industry":"Web","NbEmpl":338,"City":"","Address":"Long Island\nNew York, NY   11101\n","PostalCode":"12345"},"collections":{}},{"$sys":{"guid":"2669cc2f-7bff-a1e2-5fd4-8b8e844edbb6","typeGuid":"59583572-20fa-1f58-8d3f-5114af0f2c51"},"fields":{"Id":2,"CompanyId":0,"Company":"TradeWeb","Industry":"Paper","NbEmpl":356,"City":"","Address":"24 Dayton Dr , Apt #152A\nEdison, NJ   08820\n","PostalCode":"12345"},"collections":{}},{"$sys":{"guid":"b3c70ca9-cb52-d612-169b-f34a5abd773b","typeGuid":"59583572-20fa-1f58-8d3f-5114af0f2c51"},"fields":{"Id":3,"CompanyId":0,"Company":"Pixel Systems Inc","Industry":"","NbEmpl":915,"City":"","Address":"3 Lisa ct\nParlin, NJ   08859\n","PostalCode":"12345"},"collections":{}},{"$sys":{"guid":"b136677e-fca5-27ef-c906-b55923f3b9b9","typeGuid":"59583572-20fa-1f58-8d3f-5114af0f2c51"},"fields":{"Id":4,"CompanyId":0,"Company":"Worldwide Software Servic","Industry":"","NbEmpl":591,"City":"","Address":"nj\nnj, NJ   07080\n","PostalCode":"12345"},"collections":{}},{"$sys":{"guid":"26490c77-8f3c-f04d-5334-551d285dd4c0","typeGuid":"59583572-20fa-1f58-8d3f-5114af0f2c51"},"fields":{"Id":5,"CompanyId":0,"Company":"Enherent Corp.","Industry":"","NbEmpl":565,"City":"","Address":"9169 111 Street\nRichmond Hill, NY   11418\n","PostalCode":"12345"},"collections":{}},{"$sys":{"guid":"9941fdcf-ed51-b3ed-6297-1c8cfc413127","typeGuid":"59583572-20fa-1f58-8d3f-5114af0f2c51"},"fields":{"Id":6,"CompanyId":0,"Company":"Newscorp","Industry":"","NbEmpl":184,"City":"","Address":"666 Plainsboro\nPlainsboro, NJ   08536\n","PostalCode":"11801"},"collections":{}},{"$sys":{"guid":"75ea9d15-348a-3665-adeb-a236d9947f3c","typeGuid":"59583572-20fa-1f58-8d3f-5114af0f2c51"},"fields":{"Id":7,"CompanyId":0,"Company":"wElGoaYTRdGLk","Industry":"","NbEmpl":44,"City":"","Address":"800 Davidson Road, # 885\nPiscataway, NJ   08854\n","PostalCode":"12345"},"collections":{}},{"$sys":{"guid":"d669d848-1faf-6d64-d40a-113b377f213d","typeGuid":"59583572-20fa-1f58-8d3f-5114af0f2c51"},"fields":{"Id":8,"CompanyId":0,"Company":"Cathedral Partners ","Industry":"","NbEmpl":501,"City":"","Address":"597 moonachie ave\nWood Ridge, NJ   07075\n","PostalCode":"12345"},"collections":{}},{"$sys":{"guid":"2787c1fb-b5af-63f1-b9d1-e937cb47857d","typeGuid":"59583572-20fa-1f58-8d3f-5114af0f2c51"},"fields":{"Id":9,"CompanyId":0,"Company":"PCS Dunbar","Industry":"","NbEmpl":606,"City":"","Address":"761 banyan ct\nmorganville, NJ   07751\n","PostalCode":"12345"},"collections":{}},{"$sys":{"guid":"33bfb99a-9df4-1584-604c-7a7d8425e555","typeGuid":"59583572-20fa-1f58-8d3f-5114af0f2c51"},"fields":{"Id":10,"CompanyId":0,"Company":"Loreal","Industry":"","NbEmpl":363,"City":"","Address":"635 Glen Ave.\nwestfield, NJ   07090\n","PostalCode":"12345"},"collections":{}},{"$sys":{"guid":"4e4e53ad-087a-711e-5020-09d2c589e51f","typeGuid":"59583572-20fa-1f58-8d3f-5114af0f2c51"},"fields":{"Id":11,"CompanyId":0,"Company":"Genworth Financial","Industry":"","NbEmpl":781,"City":"","Address":"NY\nNY, NY   10001\n","PostalCode":"12345"},"collections":{}},{"$sys":{"guid":"1c88800a-7888-5f43-8353-f6f273b8d9e7","typeGuid":"59583572-20fa-1f58-8d3f-5114af0f2c51"},"fields":{"Id":12,"CompanyId":0,"Company":"CPS/Comtech, Inc.","Industry":"","NbEmpl":977,"City":"","Address":"104 Huntingdon Court\nPhoenixville, PA   19460\n","PostalCode":"12345"},"collections":{}},{"$sys":{"guid":"ba6b4803-835d-72e0-eae6-f5a7ecf334a9","typeGuid":"59583572-20fa-1f58-8d3f-5114af0f2c51"},"fields":{"Id":13,"CompanyId":0,"Company":"Yandex","Industry":"","NbEmpl":492,"City":"","Address":"11 Cloverdale Circle\nTinton Falls, NJ   07724\n","PostalCode":"12345"},"collections":{}},{"$sys":{"guid":"3ef85970-dd05-da3d-fc3b-843843de2252","typeGuid":"59583572-20fa-1f58-8d3f-5114af0f2c51"},"fields":{"Id":14,"CompanyId":0,"Company":"Avslon","Industry":"","NbEmpl":390,"City":"","Address":"2 Penn Plaza\nNew York, NY   10121\n","PostalCode":"12345"},"collections":{}},{"$sys":{"guid":"31663516-b65c-5588-3d3f-13466f6286ea","typeGuid":"59583572-20fa-1f58-8d3f-5114af0f2c51"},"fields":{"Id":15,"CompanyId":0,"Company":"Bob Ross","Industry":"","NbEmpl":466,"City":"","Address":"22 Pine Street\nWest Haven, CT   06516\n","PostalCode":"12345"},"collections":{}},{"$sys":{"guid":"bbbfebd9-dce1-52a6-2920-687c25d99183","typeGuid":"59583572-20fa-1f58-8d3f-5114af0f2c51"},"fields":{"Id":16,"CompanyId":0,"Company":"North American Power","Industry":"","NbEmpl":300,"City":"","Address":"Ravens Crest Drive, Parsippany, NJ  07054, US","PostalCode":"0"},"collections":{}},{"$sys":{"guid":"bacfda03-31c7-02d0-7579-7968a750372a","typeGuid":"59583572-20fa-1f58-8d3f-5114af0f2c51"},"fields":{"Id":17,"CompanyId":0,"Company":"Cannel","Industry":"","NbEmpl":290,"City":"","Address":"507 Yale Ave, Hillside, NJ  07205, US","PostalCode":"12345"},"collections":{}},{"$sys":{"guid":"86097e93-ff77-423c-ca24-b092f9fe66f1","typeGuid":"59583572-20fa-1f58-8d3f-5114af0f2c51"},"fields":{"Id":18,"CompanyId":0,"Company":"American Unit,Inc.","Industry":"","NbEmpl":204,"City":"","Address":"136 Elizabeth Ave.\nIselin, NJ   08830\n","PostalCode":"12345"},"collections":{}},{"$sys":{"guid":"84cb5e4f-781d-7a23-2b4f-1ac644f722af","typeGuid":"59583572-20fa-1f58-8d3f-5114af0f2c51"},"fields":{"Id":19,"CompanyId":0,"Company":"American Consulting Group","Industry":"","NbEmpl":876,"City":"","Address":"1\nedison ,  NJ     08817\nUnited States","PostalCode":"12345"},"collections":{}},{"$sys":{"guid":"ea6a762c-f05e-b06d-a1c8-75fa8bc7f22c","typeGuid":"59583572-20fa-1f58-8d3f-5114af0f2c51"},"fields":{"Id":20,"CompanyId":0,"Company":"FlowPlace","Industry":"","NbEmpl":947,"City":"","Address":"61 Sky Manor Rd, Pittstown, NJ  08867, US","PostalCode":"0"},"collections":{}}]}}